{
  "norad_id": 61583,
  "name": "STARLINK-11368 [DTC]",
  "history": [
    {
      "epoch": "2026-03-28T18:28:17.635584Z",
      "apogee_km": 360.52470499355604,
      "perigee_km": 358.92944829477074,
      "latitude_deg": 5.755748924833182e-05,
      "longitude_deg": 99.18292516854231,
      "height_km": 360.595815906496,
      "semi_major_axis_km": 6737.864076644163,
      "eccentricity": 0.00011838,
      "inclination_deg": 53.1589,
      "raan_deg": 202.4417,
      "arg_perigee_deg": 86.7888,
      "mean_anomaly_deg": 273.3266,
      "mean_motion_rev_day": 15.69709886
    },
    {
      "epoch": "2026-03-29T00:35:02.490432Z",
      "apogee_km": 360.85298491578214,
      "perigee_km": 358.64026393352106,
      "latitude_deg": -1.4949126084839235e-05,
      "longitude_deg": 5.987346073187335,
      "height_km": 360.3661930955801,
      "semi_major_axis_km": 6737.883624424651,
      "eccentricity": 0.0001642,
      "inclination_deg": 53.1572,
      "raan_deg": 201.1841,
      "arg_perigee_deg": 74.6364,
      "mean_anomaly_deg": 285.4835,
      "mean_motion_rev_day": 15.69703055
    },
    {
      "epoch": "2026-03-29T20:26:55.993344Z",
      "apogee_km": 360.42707831231564,
      "perigee_km": 359.16533294022975,
      "latitude_deg": -5.788954503849119e-06,
      "longitude_deg": 63.120903628823115,
      "height_km": 360.6876863215673,
      "semi_major_axis_km": 6737.933205626272,
      "eccentricity": 9.363e-05,
      "inclination_deg": 53.1594,
      "raan_deg": 197.1064,
      "arg_perigee_deg": 87.9722,
      "mean_anomaly_deg": 272.1403,
      "mean_motion_rev_day": 15.69685729
    },
    {
      "epoch": "2026-03-30T13:15:26.345664Z",
      "apogee_km": 360.32345094723587,
      "perigee_km": 359.08409251568355,
      "latitude_deg": -6.612738459430611e-05,
      "longitude_deg": 166.85289365052702,
      "height_km": 360.46158064285424,
      "semi_major_axis_km": 6737.840771731459,
      "eccentricity": 9.197e-05,
      "inclination_deg": 53.1598,
      "raan_deg": 193.6552,
      "arg_perigee_deg": 75.4076,
      "mean_anomaly_deg": 284.7043,
      "mean_motion_rev_day": 15.6971803
    },
    {
      "epoch": "2026-03-30T23:57:13.052736Z",
      "apogee_km": 360.6821189478187,
      "perigee_km": 358.7606164985109,
      "latitude_deg": 3.4954618963874286e-05,
      "longitude_deg": 3.7719749302128722,
      "height_km": 360.2942376747143,
      "semi_major_axis_km": 6737.8583677231645,
      "eccentricity": 0.00014259,
      "inclination_deg": 53.1591,
      "raan_deg": 191.4581,
      "arg_perigee_deg": 69.2507,
      "mean_anomaly_deg": 290.8664,
      "mean_motion_rev_day": 15.69711881
    },
    {
      "epoch": "2026-04-01T12:37:39.314208Z",
      "apogee_km": 360.6464570377402,
      "perigee_km": 358.8582212071369,
      "latitude_deg": 4.39415117394467e-05,
      "longitude_deg": 164.6213147977744,
      "height_km": 360.96160729851255,
      "semi_major_axis_km": 6737.889339122438,
      "eccentricity": 0.0001327,
      "inclination_deg": 53.1604,
      "raan_deg": 183.923,
      "arg_perigee_deg": 109.3183,
      "mean_anomaly_deg": 250.7979,
      "mean_motion_rev_day": 15.69701058
    },
    {
      "epoch": "2026-04-02T10:01:12.537408Z",
      "apogee_km": 360.43198621731244,
      "perigee_km": 358.9941290150173,
      "latitude_deg": 7.434866190963513e-05,
      "longitude_deg": -161.53705297509737,
      "height_km": 360.649976652247,
      "semi_major_axis_km": 6737.850057616165,
      "eccentricity": 0.0001067,
      "inclination_deg": 53.1594,
      "raan_deg": 179.5316,
      "arg_perigee_deg": 91.8565,
      "mean_anomaly_deg": 268.2576,
      "mean_motion_rev_day": 15.69714785
    },
    {
      "epoch": "2026-04-02T22:14:40.119936Z",
      "apogee_km": 359.62596805448356,
      "perigee_km": 359.06527475072926,
      "latitude_deg": 1.8278723831812248e-05,
      "longitude_deg": 12.084543075938655,
      "height_km": 360.3137991229006,
      "semi_major_axis_km": 6737.482621402606,
      "eccentricity": 4.161e-05,
      "inclination_deg": 53.1616,
      "raan_deg": 177.0202,
      "arg_perigee_deg": 100.9804,
      "mean_anomaly_deg": 259.1261,
      "mean_motion_rev_day": 15.69843196
    },
    {
      "epoch": "2026-04-03T15:03:15.772896Z",
      "apogee_km": 360.8078760635608,
      "perigee_km": 358.9333623438988,
      "latitude_deg": -4.776894139225224e-05,
      "longitude_deg": 115.7927816684989,
      "height_km": 361.1783846139852,
      "semi_major_axis_km": 6738.0076192037295,
      "eccentricity": 0.0001391,
      "inclination_deg": 53.1616,
      "raan_deg": 173.5674,
      "arg_perigee_deg": 114.8699,
      "mean_anomaly_deg": 245.2463,
      "mean_motion_rev_day": 15.69659726
    },
    {
      "epoch": "2026-04-04T13:58:27.411744Z",
      "apogee_km": 360.6900280465088,
      "perigee_km": 358.7144935752385,
      "latitude_deg": 5.9496712560831474e-05,
      "longitude_deg": 126.34677896857336,
      "height_km": 360.53603343330536,
      "semi_major_axis_km": 6737.839260810873,
      "eccentricity": 0.0001466,
      "inclination_deg": 53.1566,
      "raan_deg": 168.8611,
      "arg_perigee_deg": 85.4118,
      "mean_anomaly_deg": 274.7068,
      "mean_motion_rev_day": 15.69718558
    },
    {
      "epoch": "2026-04-05T14:25:25.847040Z",
      "apogee_km": 360.31033671138084,
      "perigee_km": 359.23766128034003,
      "latitude_deg": -3.081609642688285e-05,
      "longitude_deg": 113.57432183622474,
      "height_km": 360.75303939218566,
      "semi_major_axis_km": 6737.91099899586,
      "eccentricity": 7.96e-05,
      "inclination_deg": 53.1573,
      "raan_deg": 163.8363,
      "arg_perigee_deg": 96.99,
      "mean_anomaly_deg": 263.1208,
      "mean_motion_rev_day": 15.69693489
    },
    {
      "epoch": "2026-04-05T14:25:25.847904Z",
      "apogee_km": 360.3104714696001,
      "perigee_km": 359.2375265221199,
      "latitude_deg": -3.26483240233315e-05,
      "longitude_deg": 113.57431686125942,
      "height_km": 360.7530557915749,
      "semi_major_axis_km": 6737.91099899586,
      "eccentricity": 7.962e-05,
      "inclination_deg": 53.1573,
      "raan_deg": 163.8363,
      "arg_perigee_deg": 96.99,
      "mean_anomaly_deg": 263.1208,
      "mean_motion_rev_day": 15.69693489
    },
    {
      "epoch": "2026-04-07T13:47:36.684096Z",
      "apogee_km": 360.13514812490394,
      "perigee_km": 359.28483183476783,
      "latitude_deg": -5.391218760267491e-07,
      "longitude_deg": 111.35548160720597,
      "height_km": 360.46713166619304,
      "semi_major_axis_km": 6737.846989979836,
      "eccentricity": 6.31e-05,
      "inclination_deg": 53.1584,
      "raan_deg": 154.108,
      "arg_perigee_deg": 68.3262,
      "mean_anomaly_deg": 291.7823,
      "mean_motion_rev_day": 15.69715857
    },
    {
      "epoch": "2026-04-08T09:39:30.205152Z",
      "apogee_km": 360.27665350146435,
      "perigee_km": 359.1981893215743,
      "latitude_deg": 5.890691197271473e-06,
      "longitude_deg": 168.48545841096396,
      "height_km": 360.35107334876557,
      "semi_major_axis_km": 6737.8744214115195,
      "eccentricity": 8.003e-05,
      "inclination_deg": 53.1576,
      "raan_deg": 150.0268,
      "arg_perigee_deg": 56.1555,
      "mean_anomaly_deg": 303.9539,
      "mean_motion_rev_day": 15.69706271
    },
    {
      "epoch": "2026-04-09T10:06:26.840736Z",
      "apogee_km": 360.47442793591927,
      "perigee_km": 359.02793810078856,
      "latitude_deg": -9.447124967866534e-06,
      "longitude_deg": 155.72467487432084,
      "height_km": 360.38400286577615,
      "semi_major_axis_km": 6737.888183018354,
      "eccentricity": 0.00010734,
      "inclination_deg": 53.1572,
      "raan_deg": 145.0061,
      "arg_perigee_deg": 67.1643,
      "mean_anomaly_deg": 292.9488,
      "mean_motion_rev_day": 15.69701462
    },
    {
      "epoch": "2026-04-11T09:28:38.629056Z",
      "apogee_km": 360.581098073425,
      "perigee_km": 358.8777654394762,
      "latitude_deg": 2.0130675465411684e-05,
      "longitude_deg": 153.4995598683511,
      "height_km": 360.5045249796225,
      "semi_major_axis_km": 6737.86643175645,
      "eccentricity": 0.0001264,
      "inclination_deg": 53.1597,
      "raan_deg": 135.2755,
      "arg_perigee_deg": 80.6523,
      "mean_anomaly_deg": 279.4638,
      "mean_motion_rev_day": 15.69709063
    },
    {
      "epoch": "2026-04-13T05:47:28.415040Z",
      "apogee_km": 360.44726383903617,
      "perigee_km": 359.0133109229364,
      "latitude_deg": 3.08840955473863e-05,
      "longitude_deg": -162.13227933830464,
      "height_km": 360.8083120631309,
      "semi_major_axis_km": 6737.867287380986,
      "eccentricity": 0.00010641,
      "inclination_deg": 53.1605,
      "raan_deg": 126.171,
      "arg_perigee_deg": 103.242,
      "mean_anomaly_deg": 256.8717,
      "mean_motion_rev_day": 15.69708764
    },
    {
      "epoch": "2026-04-14T18:27:52.996896Z",
      "apogee_km": 360.3447831212625,
      "perigee_km": 359.10097418766236,
      "latitude_deg": -3.563920608644751e-06,
      "longitude_deg": -1.2715547134102818,
      "height_km": 360.7028318964735,
      "semi_major_axis_km": 6737.859878654463,
      "eccentricity": 9.23e-05,
      "inclination_deg": 53.159,
      "raan_deg": 118.6403,
      "arg_perigee_deg": 96.107,
      "mean_anomaly_deg": 264.0053,
      "mean_motion_rev_day": 15.69711353
    },
    {
      "epoch": "2026-04-15T17:23:08.541024Z",
      "apogee_km": 360.5870157285244,
      "perigee_km": 358.8594283675902,
      "latitude_deg": -4.89417719901423e-05,
      "longitude_deg": 9.264514695529089,
      "height_km": 360.5963586003034,
      "semi_major_axis_km": 6737.860222048057,
      "eccentricity": 0.0001282,
      "inclination_deg": 53.16,
      "raan_deg": 113.9325,
      "arg_perigee_deg": 87.3269,
      "mean_anomaly_deg": 272.7895,
      "mean_motion_rev_day": 15.69711233
    },
    {
      "epoch": "2026-04-16T07:08:17.598624Z",
      "apogee_km": 360.5575327127426,
      "perigee_km": 358.90136513959624,
      "latitude_deg": 2.118987101071924e-05,
      "longitude_deg": 159.5880322933311,
      "height_km": 360.54735254881354,
      "semi_major_axis_km": 6737.866448926169,
      "eccentricity": 0.0001229,
      "inclination_deg": 53.16,
      "raan_deg": 111.1085,
      "arg_perigee_deg": 83.3713,
      "mean_anomaly_deg": 276.7445,
      "mean_motion_rev_day": 15.69709057
    }
  ]
}